TIANMU-1 10             
1 57402U 23101D   26117.25084756  .00007346  00000+0  26070-3 0  9996
2 57402  97.2666 169.3163 0002785 335.4421  24.6686 15.29338144153853
FENGYUN 3F              
1 57490U 23111A   26117.30950840  .00000062  00000+0  49586-4 0  9992
2 57490  98.6854 188.2607 0000913 113.3150 246.8123 14.19929875141643
ARKTIKA-M 2             
1 58584U 23198A   26110.92958556  .00000217  00000+0  00000+0 0  9990
2 58584  63.2192 160.7194 6953303 267.0904  18.4710  2.00586979 17173
TIANMU-1 11             
1 58645U 23205A   26117.25832054  .00006289  00000+0  24373-3 0  9992
2 58645  97.3487 139.6274 0009221 172.4959 187.6419 15.26457975129752
TIANMU-1 12             
1 58646U 23205B   26117.29276517  .00006657  00000+0  25832-3 0  9993
2 58646  97.3476 139.4281 0008081 154.4275 205.7365 15.26404862129749
TIANMU-1 13             
1 58647U 23205C   26117.32202274  .00006702  00000+0  25958-3 0  9997
2 58647  97.3504 139.7173 0008863 138.7911 221.3999 15.26458860129749
TIANMU-1 14             
1 58648U 23205D   26117.30743189  .00006540  00000+0  25353-3 0  9990
2 58648  97.3438 138.9280 0009464 143.2592 216.9298 15.26430357129743
TIANMU-1 19             
1 58660U 23208A   26117.31261109  .00010722  00000+0  36281-3 0  9994
2 58660  97.4439 233.4022 0006341 129.4362 230.7441 15.30769437129547
TIANMU-1 20             
1 58661U 23208B   26117.25930554  .00011047  00000+0  36009-3 0  9994
2 58661  97.4379 233.9315 0008359 138.6708 221.5168 15.31956400129620
TIANMU-1 21             
1 58662U 23208C   26117.32197091  .00012595  00000+0  38317-3 0  9997
2 58662  97.4437 236.4614 0008337 133.2587 226.9353 15.34129304129766
TIANMU-1 22             
1 58663U 23208D   26117.27823248  .00009963  00000+0  34221-3 0  9997
2 58663  97.4434 233.3444 0004715 145.4440 214.7108 15.30311331129548
TIANMU-1 15             
1 58700U 24004A   26117.30441483  .00007173  00000+0  27766-3 0  9992
2 58700  97.4678 303.5034 0007634 157.2556 202.9022 15.26471020128019
TIANMU-1 16             
1 58701U 24004B   26117.28673156  .00006995  00000+0  27061-3 0  9993
2 58701  97.4623 302.7753 0006035 157.0606 203.0904 15.26508217128017
TIANMU-1 17             
1 58702U 24004C   26117.27086153  .00007298  00000+0  28349-3 0  9995
2 58702  97.4652 303.2281 0005812 161.8064 198.3384 15.26355887128005
TIANMU-1 18             
1 58703U 24004D   26117.32068878  .00007162  00000+0  27738-3 0  9997
2 58703  97.4670 303.5031 0004727 152.9766 207.1720 15.26470042128011
INSAT-3DS               
1 58990U 24033A   26116.76572571 -.00000167  00000+0  00000+0 0  9992
2 58990   0.0919  86.7261 0001934 299.8544 185.9109  1.00270692 46550
METEOR-M2 4             
1 59051U 24039A   26117.32606396  .00000039  00000+0  37116-4 0  9993
2 59051  98.6976  77.2745 0006400 325.4394  34.6367 14.22424135112033
