[{"OBJECT_NAME":"TIANMU-1 10","OBJECT_ID":"2023-101D","EPOCH":"2026-04-27T06:01:13.229184","MEAN_MOTION":15.29338144,"ECCENTRICITY":0.00027851,"INCLINATION":97.2666,"RA_OF_ASC_NODE":169.3163,"ARG_OF_PERICENTER":335.4421,"MEAN_ANOMALY":24.6686,"EPHEMERIS_TYPE":0,"CLASSIFICATION_TYPE":"U","NORAD_CAT_ID":57402,"ELEMENT_SET_NO":999,"REV_AT_EPOCH":15385,"BSTAR":0.00026069655,"MEAN_MOTION_DOT":7.346e-5,"MEAN_MOTION_DDOT":0},{"OBJECT_NAME":"FENGYUN 3F","OBJECT_ID":"2023-111A","EPOCH":"2026-04-27T07:25:41.525760","MEAN_MOTION":14.19929875,"ECCENTRICITY":9.138e-5,"INCLINATION":98.6854,"RA_OF_ASC_NODE":188.2607,"ARG_OF_PERICENTER":113.315,"MEAN_ANOMALY":246.8123,"EPHEMERIS_TYPE":0,"CLASSIFICATION_TYPE":"U","NORAD_CAT_ID":57490,"ELEMENT_SET_NO":999,"REV_AT_EPOCH":14164,"BSTAR":4.9585802e-5,"MEAN_MOTION_DOT":6.2e-7,"MEAN_MOTION_DDOT":0},{"OBJECT_NAME":"ARKTIKA-M 2","OBJECT_ID":"2023-198A","EPOCH":"2026-04-20T22:18:36.192384","MEAN_MOTION":2.00586979,"ECCENTRICITY":0.69533035,"INCLINATION":63.2192,"RA_OF_ASC_NODE":160.7194,"ARG_OF_PERICENTER":267.0904,"MEAN_ANOMALY":18.471,"EPHEMERIS_TYPE":0,"CLASSIFICATION_TYPE":"U","NORAD_CAT_ID":58584,"ELEMENT_SET_NO":999,"REV_AT_EPOCH":1717,"BSTAR":0,"MEAN_MOTION_DOT":2.17e-6,"MEAN_MOTION_DDOT":0},{"OBJECT_NAME":"TIANMU-1 11","OBJECT_ID":"2023-205A","EPOCH":"2026-04-27T06:11:58.894656","MEAN_MOTION":15.26457975,"ECCENTRICITY":0.00092218,"INCLINATION":97.3487,"RA_OF_ASC_NODE":139.6274,"ARG_OF_PERICENTER":172.4959,"MEAN_ANOMALY":187.6419,"EPHEMERIS_TYPE":0,"CLASSIFICATION_TYPE":"U","NORAD_CAT_ID":58645,"ELEMENT_SET_NO":999,"REV_AT_EPOCH":12975,"BSTAR":0.00024372586,"MEAN_MOTION_DOT":6.289e-5,"MEAN_MOTION_DDOT":0},{"OBJECT_NAME":"TIANMU-1 12","OBJECT_ID":"2023-205B","EPOCH":"2026-04-27T07:01:34.910688","MEAN_MOTION":15.26404862,"ECCENTRICITY":0.00080812,"INCLINATION":97.3476,"RA_OF_ASC_NODE":139.4281,"ARG_OF_PERICENTER":154.4275,"MEAN_ANOMALY":205.7365,"EPHEMERIS_TYPE":0,"CLASSIFICATION_TYPE":"U","NORAD_CAT_ID":58646,"ELEMENT_SET_NO":999,"REV_AT_EPOCH":12974,"BSTAR":0.00025832002,"MEAN_MOTION_DOT":6.657e-5,"MEAN_MOTION_DDOT":0},{"OBJECT_NAME":"TIANMU-1 13","OBJECT_ID":"2023-205C","EPOCH":"2026-04-27T07:43:42.764736","MEAN_MOTION":15.2645886,"ECCENTRICITY":0.00088637,"INCLINATION":97.3504,"RA_OF_ASC_NODE":139.7173,"ARG_OF_PERICENTER":138.7911,"MEAN_ANOMALY":221.3999,"EPHEMERIS_TYPE":0,"CLASSIFICATION_TYPE":"U","NORAD_CAT_ID":58647,"ELEMENT_SET_NO":999,"REV_AT_EPOCH":12974,"BSTAR":0.00025957657,"MEAN_MOTION_DOT":6.702e-5,"MEAN_MOTION_DDOT":0},{"OBJECT_NAME":"TIANMU-1 14","OBJECT_ID":"2023-205D","EPOCH":"2026-04-27T07:22:42.115296","MEAN_MOTION":15.26430357,"ECCENTRICITY":0.00094641,"INCLINATION":97.3438,"RA_OF_ASC_NODE":138.928,"ARG_OF_PERICENTER":143.2592,"MEAN_ANOMALY":216.9298,"EPHEMERIS_TYPE":0,"CLASSIFICATION_TYPE":"U","NORAD_CAT_ID":58648,"ELEMENT_SET_NO":999,"REV_AT_EPOCH":12974,"BSTAR":0.00025352671,"MEAN_MOTION_DOT":6.54e-5,"MEAN_MOTION_DDOT":0},{"OBJECT_NAME":"TIANMU-1 19","OBJECT_ID":"2023-208A","EPOCH":"2026-04-27T07:30:09.598176","MEAN_MOTION":15.30769437,"ECCENTRICITY":0.00063415,"INCLINATION":97.4439,"RA_OF_ASC_NODE":233.4022,"ARG_OF_PERICENTER":129.4362,"MEAN_ANOMALY":230.7441,"EPHEMERIS_TYPE":0,"CLASSIFICATION_TYPE":"U","NORAD_CAT_ID":58660,"ELEMENT_SET_NO":999,"REV_AT_EPOCH":12954,"BSTAR":0.00036280977,"MEAN_MOTION_DOT":0.00010722,"MEAN_MOTION_DDOT":0},{"OBJECT_NAME":"TIANMU-1 20","OBJECT_ID":"2023-208B","EPOCH":"2026-04-27T06:13:23.998656","MEAN_MOTION":15.319564,"ECCENTRICITY":0.0008359,"INCLINATION":97.4379,"RA_OF_ASC_NODE":233.9315,"ARG_OF_PERICENTER":138.6708,"MEAN_ANOMALY":221.5168,"EPHEMERIS_TYPE":0,"CLASSIFICATION_TYPE":"U","NORAD_CAT_ID":58661,"ELEMENT_SET_NO":999,"REV_AT_EPOCH":12962,"BSTAR":0.00036009119,"MEAN_MOTION_DOT":0.00011047,"MEAN_MOTION_DDOT":0},{"OBJECT_NAME":"TIANMU-1 21","OBJECT_ID":"2023-208C","EPOCH":"2026-04-27T07:43:38.286624","MEAN_MOTION":15.34129304,"ECCENTRICITY":0.00083376,"INCLINATION":97.4437,"RA_OF_ASC_NODE":236.4614,"ARG_OF_PERICENTER":133.2587,"MEAN_ANOMALY":226.9353,"EPHEMERIS_TYPE":0,"CLASSIFICATION_TYPE":"U","NORAD_CAT_ID":58662,"ELEMENT_SET_NO":999,"REV_AT_EPOCH":12976,"BSTAR":0.00038316531,"MEAN_MOTION_DOT":0.00012595,"MEAN_MOTION_DDOT":0},{"OBJECT_NAME":"TIANMU-1 22","OBJECT_ID":"2023-208D","EPOCH":"2026-04-27T06:40:39.286272","MEAN_MOTION":15.30311331,"ECCENTRICITY":0.00047154,"INCLINATION":97.4434,"RA_OF_ASC_NODE":233.3444,"ARG_OF_PERICENTER":145.444,"MEAN_ANOMALY":214.7108,"EPHEMERIS_TYPE":0,"CLASSIFICATION_TYPE":"U","NORAD_CAT_ID":58663,"ELEMENT_SET_NO":999,"REV_AT_EPOCH":12954,"BSTAR":0.00034221499,"MEAN_MOTION_DOT":9.963e-5,"MEAN_MOTION_DDOT":0},{"OBJECT_NAME":"TIANMU-1 15","OBJECT_ID":"2024-004A","EPOCH":"2026-04-27T07:18:21.441312","MEAN_MOTION":15.2647102,"ECCENTRICITY":0.00076349,"INCLINATION":97.4678,"RA_OF_ASC_NODE":303.5034,"ARG_OF_PERICENTER":157.2556,"MEAN_ANOMALY":202.9022,"EPHEMERIS_TYPE":0,"CLASSIFICATION_TYPE":"U","NORAD_CAT_ID":58700,"ELEMENT_SET_NO":999,"REV_AT_EPOCH":12801,"BSTAR":0.00027765732,"MEAN_MOTION_DOT":7.173e-5,"MEAN_MOTION_DDOT":0},{"OBJECT_NAME":"TIANMU-1 16","OBJECT_ID":"2024-004B","EPOCH":"2026-04-27T06:52:53.606784","MEAN_MOTION":15.26508217,"ECCENTRICITY":0.00060353,"INCLINATION":97.4623,"RA_OF_ASC_NODE":302.7753,"ARG_OF_PERICENTER":157.0606,"MEAN_ANOMALY":203.0904,"EPHEMERIS_TYPE":0,"CLASSIFICATION_TYPE":"U","NORAD_CAT_ID":58701,"ELEMENT_SET_NO":999,"REV_AT_EPOCH":12801,"BSTAR":0.00027060572,"MEAN_MOTION_DOT":6.995e-5,"MEAN_MOTION_DDOT":0},{"OBJECT_NAME":"TIANMU-1 17","OBJECT_ID":"2024-004C","EPOCH":"2026-04-27T06:30:02.436192","MEAN_MOTION":15.26355887,"ECCENTRICITY":0.00058127,"INCLINATION":97.4652,"RA_OF_ASC_NODE":303.2281,"ARG_OF_PERICENTER":161.8064,"MEAN_ANOMALY":198.3384,"EPHEMERIS_TYPE":0,"CLASSIFICATION_TYPE":"U","NORAD_CAT_ID":58702,"ELEMENT_SET_NO":999,"REV_AT_EPOCH":12800,"BSTAR":0.00028349478,"MEAN_MOTION_DOT":7.298e-5,"MEAN_MOTION_DDOT":0},{"OBJECT_NAME":"TIANMU-1 18","OBJECT_ID":"2024-004D","EPOCH":"2026-04-27T07:41:47.510592","MEAN_MOTION":15.26470042,"ECCENTRICITY":0.00047279,"INCLINATION":97.467,"RA_OF_ASC_NODE":303.5031,"ARG_OF_PERICENTER":152.9766,"MEAN_ANOMALY":207.172,"EPHEMERIS_TYPE":0,"CLASSIFICATION_TYPE":"U","NORAD_CAT_ID":58703,"ELEMENT_SET_NO":999,"REV_AT_EPOCH":12801,"BSTAR":0.000277375,"MEAN_MOTION_DOT":7.162e-5,"MEAN_MOTION_DDOT":0},{"OBJECT_NAME":"INSAT-3DS","OBJECT_ID":"2024-033A","EPOCH":"2026-04-26T18:22:38.701344","MEAN_MOTION":1.00270692,"ECCENTRICITY":0.00019347,"INCLINATION":0.0919,"RA_OF_ASC_NODE":86.7261,"ARG_OF_PERICENTER":299.8544,"MEAN_ANOMALY":185.9109,"EPHEMERIS_TYPE":0,"CLASSIFICATION_TYPE":"U","NORAD_CAT_ID":58990,"ELEMENT_SET_NO":999,"REV_AT_EPOCH":4655,"BSTAR":0,"MEAN_MOTION_DOT":-1.67e-6,"MEAN_MOTION_DDOT":0},{"OBJECT_NAME":"METEOR-M2 4","OBJECT_ID":"2024-039A","EPOCH":"2026-04-27T07:49:31.926144","MEAN_MOTION":14.22424135,"ECCENTRICITY":0.00064008,"INCLINATION":98.6976,"RA_OF_ASC_NODE":77.2745,"ARG_OF_PERICENTER":325.4394,"MEAN_ANOMALY":34.6367,"EPHEMERIS_TYPE":0,"CLASSIFICATION_TYPE":"U","NORAD_CAT_ID":59051,"ELEMENT_SET_NO":999,"REV_AT_EPOCH":11203,"BSTAR":3.711598e-5,"MEAN_MOTION_DOT":3.9e-7,"MEAN_MOTION_DDOT":0}]
